STARLINK-30463          
1 57909U 23146U   25134.49876310  .00004397  00000+0  34003-3 0  9994
2 57909  43.0044 138.7639 0001042 323.6885  36.3887 15.02573437 92010
STARLINK-30453          
1 57910U 23146V   25134.49212589  .00004195  00000+0  32533-3 0  9990
2 57910  43.0022 138.7192 0001513 308.4484  51.6223 15.02545988 91968
STARLINK-30478          
1 57911U 23146W   25134.34476122  .00001264  00000+0  10858-3 0  9990
2 57911  43.0032 139.3280 0001183 289.7240  70.3475 15.02540904 92049
STARLINK-30477          
1 57912U 23146X   25134.48880459 -.00000103  00000+0  74579-5 0  9992
2 57912  43.0032 138.6913 0001381 272.0759  87.9925 15.02537689 92067
STARLINK-30450          
1 57913U 23147A   25134.40884805  .00000365  00000+0  42091-4 0  9997
2 57913  43.0026 152.6682 0001379 273.3084  86.7600 15.02535720 91567
STARLINK-30483          
1 57914U 23147B   25134.51159221  .00003738  00000+0  15269-3 0  9990
2 57914  42.9975  68.3635 0000828 265.8078  94.2679 15.25906880 92562
STARLINK-30454          
1 57915U 23147C   25134.40218748 -.00000271  00000+0 -49839-5 0  9992
2 57915  43.0025 152.6161 0001211 274.9872  85.0832 15.02535722 91568
STARLINK-30501          
1 57917U 23147E   25134.39885950 -.00000579  00000+0 -27761-4 0  9997
2 57917  43.0025 152.5907 0001267 273.3347  86.7351 15.02533976 91594
STARLINK-30499          
1 57918U 23147F   25134.10067471  .00001401  00000+0  60412-4 0  9990
2 57918  42.9962  72.1310 0000919 156.8484 203.2409 15.27587393 92510
STARLINK-30496          
1 57919U 23147G   25134.52516268  .00001570  00000+0  13121-3 0  9991
2 57919  43.0031 151.8200 0001298 273.7846  86.2848 15.02548834 91611
STARLINK-30485          
1 57920U 23147H   25134.52182680  .00000096  00000+0  22150-4 0  9995
2 57920  43.0034 151.7951 0001752 278.1715  81.8928 15.02543658 91616
STARLINK-30492          
1 57921U 23147J   25134.38553871  .00000534  00000+0  54586-4 0  9999
2 57921  43.0033 152.4947 0001453 276.0081  84.0596 15.02537309 91566
STARLINK-30440          
1 57923U 23147L   25134.38220977  .00000101  00000+0  22587-4 0  9995
2 57923  43.0027 152.4680 0001349 281.0172  79.0518 15.02536759 91595
STARLINK-30487          
1 57924U 23147M   25134.49520363  .00001622  00000+0  13508-3 0  9991
2 57924  43.0026 151.5821 0001187 270.6900  89.3807 15.02538734 91618
STARLINK-30452          
1 57925U 23147N   25133.44820423  .00001876  00000+0  15392-3 0  9990
2 57925  43.0026 157.5022 0001580 279.5458  80.5205 15.02534605 91428
STARLINK-30468          
1 57926U 23147P   25134.37555434  .00000072  00000+0  20440-4 0  9999
2 57926  43.0028 152.4214 0001304 280.1586  79.9109 15.02534094 91564
STARLINK-30459          
1 57927U 23147Q   25134.49015416  .00008558  00000+0  32048-3 0  9997
2 57927  43.0052  51.7758 0002091 253.2283 106.8339 15.27546972 92678
STARLINK-30448          
1 57928U 23147R   25134.03649654 -.00000236  00000+0 -24317-5 0  9994
2 57928  43.0016 154.1768 0001339 281.8755  78.1938 15.02536905 91519
STARLINK-30476          
1 57930U 23147T   25134.49078864  .00016719  00000+0  11126-2 0  9998
2 57930  43.0000 137.4169 0002771  80.8595 279.2563 15.06889322 91745
STARLINK-30488          
1 57931U 23147U   25134.36555764 -.00002952  00000+0 -20349-3 0  9998
2 57931  43.0053 152.3377 0001740 290.0641  70.0014 15.02538277 91590
STARLINK-30471          
1 57932U 23147V   25134.54836070  .00002228  00000+0  17998-3 0  9991
2 57932  43.0028 151.1307 0001605 278.9217  81.1443 15.02533584 91592
STARLINK-30461          
1 57933U 23147W   25134.49185696 -.00000366  00000+0 -11987-4 0  9993
2 57933  43.0023 151.5716 0001325 276.2098  83.8593 15.02536385 91589
STARLINK-30458          
1 57934U 23147X   25134.29856787  .00051664  00000+0  16055-2 0  9992
2 57934  42.9919 130.5757 0025070 112.3415 248.0099 15.32276241 91817
STARLINK-30712          
1 57935U 23148A   25134.80909972  .00000303  00000+0  22367-4 0  9995
2 57935  53.1616 332.4720 0001151 101.2880 258.8250 15.30187489 92661
STARLINK-30716          
1 57936U 23148B   25134.83863543  .00000497  00000+0  28920-4 0  9997
2 57936  53.1616 332.5694 0001200 103.2141 256.8994 15.30190132 92662
STARLINK-30400          
1 57937U 23148C   25134.81226828 -.00000166  00000+0  65153-5 0  9999
2 57937  53.1611 332.4527 0000884 113.9793 246.1301 15.30180600 92663
STARLINK-30710          
1 57938U 23148D   25134.79969694 -.00002432  00000+0 -70012-4 0  9990
2 57938  53.1615 322.5372 0001041  64.3982 295.7126 15.30205515 92704
STARLINK-30714          
1 57939U 23148E   25134.84496004 -.00001048  00000+0 -23278-4 0  9991
2 57939  53.1608 332.5949 0000939  91.8074 268.3034 15.30198801 92668
STARLINK-30711          
1 57940U 23148F   25134.77648684 -.00000116  00000+0  81918-5 0  9998
2 57940  53.1605 332.8955 0001018  93.1223 266.9894 15.30192676 92658
STARLINK-30715          
1 57941U 23148G   25134.85067606 -.00000318  00000+0  20172-5 0  9996
2 57941  53.1621 326.9814 0001161  88.6513 271.4625 15.39600672 92747
STARLINK-30455          
1 57942U 23148H   25134.84814137 -.00002254  00000+0 -64052-4 0  9991
2 57942  53.1607 332.5790 0001112  77.0865 283.0260 15.30170617 92663
STARLINK-30456          
1 57943U 23148J   25134.83547670 -.00000762  00000+0 -13611-4 0  9993
2 57943  53.1616 332.6285 0001128 129.2578 230.8523 15.30198795 92661
STARLINK-30708          
1 57944U 23148K   25134.94606118  .00000352  00000+0  24029-4 0  9997
2 57944  53.1627 331.8973 0001300  82.3240 277.7909 15.30187955 92682
STARLINK-30705          
1 57945U 23148L   25134.82598142  .00001262  00000+0  54722-4 0  9996
2 57945  53.1608 332.5738 0001029  71.0235 289.0877 15.30195129 92666
STARLINK-30704          
1 57946U 23148M   25134.16280738  .00000061  00000+0  23608-4 0  9998
2 57946  53.1615  44.6872 0001479  93.7677 266.3481 15.04923381 91573
STARLINK-30706          
1 57947U 23148N   25134.83231392 -.00001435  00000+0 -36374-4 0  9997
2 57947  53.1613 332.6017 0001037  88.9632 271.1488 15.30179677 92662
STARLINK-30709          
1 57948U 23148P   25134.82885040  .00086829  00000+0  22046-2 0  9999
2 57948  53.1563 330.9993 0005545 243.8369 116.2065 15.38928397 92689
STARLINK-30707          
1 57949U 23148Q   25134.82915575  .00003235  00000+0  12136-3 0  9997
2 57949  53.1610 332.5869 0000502  91.5811 268.5247 15.30178877 92664
STARLINK-30701          
1 57950U 23148R   25134.82281210  .00000749  00000+0  37419-4 0  9990
2 57950  53.1609 332.5310 0000727  64.8070 295.3006 15.30192370 92669
STARLINK-30399          
1 57951U 23148S   25134.94922038  .00000729  00000+0  36743-4 0  9991
2 57951  53.1619 331.8959 0001144  84.0931 276.0200 15.30193776 92681
STARLINK-30713          
1 57952U 23148T   25134.93339853  .00000064  00000+0  14284-4 0  9996
2 57952  53.1629 331.8215 0001346  84.6554 275.4600 15.30187896 92682
STARLINK-30700          
1 57953U 23148U   25134.90609987  .00002225  00000+0  87248-4 0  9993
2 57953  53.1611 322.0353 0000906  85.1873 274.9232 15.30193565 92810
STARLINK-30703          
1 57954U 23148V   25134.81444161  .00000488  00000+0  28610-4 0  9992
2 57954  53.1613 322.4215 0001165  94.7927 265.3207 15.30193902 92808
STARLINK-30702          
1 57955U 23148W   25134.81866230  .00000874  00000+0  41649-4 0  9994
2 57955  53.1608 322.4404 0001131  85.4527 274.6602 15.30193400 92804
SKYKRAFT-3D             
1 57956U 23084BZ  25134.81555631  .00022987  00000+0  57708-3 0  9995
2 57956  97.5714 265.0016 0005940 270.2977  89.7587 15.39995746 93272
YAOGAN-33 04            
1 57958U 23149A   25134.95928940  .00000588  00000+0  13533-3 0  9992
2 57958  98.1501  85.7877 0003741  44.9123 315.2379 14.58857768 86946
STARLINK-30396          
1 57964U 23151A   25134.47831472 -.00000316  00000+0 -83390-5 0  9993
2 57964  43.0022 164.6970 0001225 275.0169  85.0533 15.02532106 90724
STARLINK-30524          
1 57965U 23151B   25134.38297808  .00000316  00000+0  38497-4 0  9998
2 57965  43.0037 164.8538 0001530 275.9214  84.1454 15.02534959 90711
STARLINK-30521          
1 57966U 23151C   25134.39074393 -.00000110  00000+0  69500-5 0  9995
2 57966  43.0029 164.9014 0001567 274.6486  85.4177 15.02523086 90715
STARLINK-30528          
1 57967U 23151D   25134.38741811  .00000798  00000+0  74110-4 0  9994
2 57967  43.0025 164.8691 0001540 286.8719  73.1954 15.02547655 90712
STARLINK-30495          
1 57968U 23151E   25134.41738309  .00000631  00000+0  61777-4 0  9998
2 57968  43.0026 165.0911 0001574 271.8796  88.1867 15.02547166 90714
STARLINK-30484          
1 57969U 23151F   25134.51702798 -.00000892  00000+0 -50996-4 0  9995
2 57969  43.0025 164.1260 0001536 272.6183  87.4483 15.02533863 90735
STARLINK-30494          
1 57970U 23151G   25134.45649022  .00001852  00000+0  76816-4 0  9994
2 57970  43.0042 134.7474 0001278 263.2276  96.8430 15.27579344 91073
STARLINK-30498          
1 57971U 23151H   25134.48936397  .00005430  00000+0  41624-3 0  9996
2 57971  43.0029 164.7565 0001497 275.5444  84.5227 15.02578958 90721
STARLINK-30505          
1 57972U 23151J   25134.57253906 -.00000368  00000+0 -12165-4 0  9991
2 57972  43.0024 164.5211 0001539 283.5222  76.5449 15.02532279 90737
STARLINK-30502          
1 57973U 23151K   25134.16146072 -.00000340  00000+0 -10123-4 0  9994
2 57973  43.0025 166.5953 0001606 278.7662  81.2999 15.02532565 90677
STARLINK-30489          
1 57974U 23151L   25134.58574126 -.00000081  00000+0  91171-5 0  9990
2 57974  43.0033 163.7735 0001455 274.8778  85.1898 15.02533549 90743
STARLINK-30503          
1 57975U 23151M   25134.43513399  .00001170  00000+0  10169-3 0  9995
2 57975  43.0035 165.1891 0001441 268.4781  91.5896 15.02534560 90713
STARLINK-30512          
1 57976U 23151N   25134.40404864  .00000533  00000+0  54533-4 0  9995
2 57976  43.0032 164.9295 0002000 272.6113  87.4500 15.02526154 90710
